start=new Date('2023-06-08T00:00:00.000Z').valueOf();
sats=[{"FILE":"3927436","RCS_SIZE":"LARGE","MEAN_MOTION":"15.02533109","MEAN_MOTION_DOT":"-0.00001120","APOAPSIS":"560.336","DECAY_DATE":null,"OBJECT_ID":"2023-015AC","MEAN_ELEMENT_THEORY":"SGP4","GP_ID":"233434571","ECCENTRICITY":"0.00017960","EPOCH":"2023-06-07T21:58:06.119904","BSTAR":"-0.00006786700000","REV_AT_EPOCH":"1946","INCLINATION":"43.0054","PERIAPSIS":"557.845","MEAN_ANOMALY":"74.7466","CENTER_NAME":"EARTH","PERIOD":"95.838","ELEMENT_SET_NO":"999","RA_OF_ASC_NODE":"30.7203","OBJECT_TYPE":"PAYLOAD","EPHEMERIS_TYPE":"0","SITE":"AFETR","TIME_SYSTEM":"UTC","REF_FRAME":"TEME","ARG_OF_PERICENTER":"285.3177","LAUNCH_DATE":"2023-02-02","SEMIMAJOR_AXIS":"6937.225","TLE_LINE2":"2 55475  43.0054  30.7203 0001796 285.3177  74.7466 15.02533109 19468","CLASSIFICATION_TYPE":"U","MEAN_MOTION_DDOT":"0.0000000000000","NORAD_CAT_ID":"55475","OBJECT_NAME":"STARLINK-5650","TLE_LINE1":"1 55475U 23015AC  23158.91534861 -.00001120  00000-0 -67867-4 0  9997","COUNTRY_CODE":"US"},{"REV_AT_EPOCH":"1994","INCLINATION":"43.0035","PERIAPSIS":"353.681","MEAN_ANOMALY":"84.5789","BSTAR":"-0.00000247730000","EPOCH":"2023-06-07T22:11:58.265088","GP_ID":"233434321","ECCENTRICITY":"0.00019780","OBJECT_ID":"2023-015AD","MEAN_ELEMENT_THEORY":"SGP4","DECAY_DATE":null,"MEAN_MOTION_DOT":"-0.00000777","APOAPSIS":"356.345","FILE":"3927436","RCS_SIZE":"LARGE","MEAN_MOTION":"15.71359450","TLE_LINE1":"1 55476U 23015AD  23158.92497992 -.00000777  00000-0 -24773-5 0  9999","COUNTRY_CODE":"US","LAUNCH_DATE":"2023-02-02","ARG_OF_PERICENTER":"275.4853","SEMIMAJOR_AXIS":"6733.148","TLE_LINE2":"2 55476  43.0035 348.9494 0001978 275.4853  84.5789 15.71359450 19948","MEAN_MOTION_DDOT":"0.0000000000000","CLASSIFICATION_TYPE":"U","OBJECT_NAME":"STARLINK-5596","NORAD_CAT_ID":"55476","REF_FRAME":"TEME","OBJECT_TYPE":"PAYLOAD","EPHEMERIS_TYPE":"0","SITE":"AFETR","TIME_SYSTEM":"UTC","ELEMENT_SET_NO":"999","PERIOD":"91.640","RA_OF_ASC_NODE":"348.9494","CENTER_NAME":"EARTH"},{"REV_AT_EPOCH":"1960","PERIAPSIS":"558.037","INCLINATION":"43.0037","MEAN_ANOMALY":"92.1518","BSTAR":"-0.00002357900000","EPOCH":"2023-06-07T22:03:25.572672","GP_ID":"233435073","ECCENTRICITY":"0.00014930","OBJECT_ID":"2023-015AE","MEAN_ELEMENT_THEORY":"SGP4","DECAY_DATE":null,"MEAN_MOTION_DOT":"-0.00000522","APOAPSIS":"560.109","FILE":"3927436","RCS_SIZE":"LARGE","MEAN_MOTION":"15.02538836","TLE_LINE1":"1 55477U 23015AE  23158.91904598 -.00000522  00000-0 -23579-4 0  9994","COUNTRY_CODE":"US","LAUNCH_DATE":"2023-02-02","ARG_OF_PERICENTER":"267.9153","CLASSIFICATION_TYPE":"U","TLE_LINE2":"2 55477  43.0037  18.6007 0001493 267.9153  92.1518 15.02538836 19602","SEMIMAJOR_AXIS":"6937.208","MEAN_MOTION_DDOT":"0.0000000000000","NORAD_CAT_ID":"55477","OBJECT_NAME":"STARLINK-5685","REF_FRAME":"TEME","EPHEMERIS_TYPE":"0","OBJECT_TYPE":"PAYLOAD","SITE":"AFETR","TIME_SYSTEM":"UTC","ELEMENT_SET_NO":"999","PERIOD":"95.838","RA_OF_ASC_NODE":"18.6007","CENTER_NAME":"EARTH"},{"EPOCH":"2023-06-07T22:00:14.080896","ECCENTRICITY":"0.00012460","GP_ID":"233435823","INCLINATION":"43.0033","PERIAPSIS":"558.221","MEAN_ANOMALY":"95.4999","REV_AT_EPOCH":"1960","BSTAR":"0.00003363400000","APOAPSIS":"559.950","MEAN_MOTION_DOT":"0.00000251","MEAN_MOTION":"15.02534663","RCS_SIZE":"LARGE","FILE":"3927436","MEAN_ELEMENT_THEORY":"SGP4","OBJECT_ID":"2023-015AF","DECAY_DATE":null,"REF_FRAME":"TEME","TIME_SYSTEM":"UTC","SITE":"AFETR","EPHEMERIS_TYPE":"0","OBJECT_TYPE":"PAYLOAD","COUNTRY_CODE":"US","TLE_LINE1":"1 55478U 23015AF  23158.91682964  .00000251  00000-0  33634-4 0  9995","OBJECT_NAME":"STARLINK-5691","NORAD_CAT_ID":"55478","CLASSIFICATION_TYPE":"U","TLE_LINE2":"2 55478  43.0033  18.5848 0001246 264.5701  95.4999 15.02534663 19602","SEMIMAJOR_AXIS":"6937.221","MEAN_MOTION_DDOT":"0.0000000000000","ARG_OF_PERICENTER":"264.5701","LAUNCH_DATE":"2023-02-02","RA_OF_ASC_NODE":"18.5848","ELEMENT_SET_NO":"999","PERIOD":"95.838","CENTER_NAME":"EARTH"},{"MEAN_MOTION":"15.02545671","RCS_SIZE":"LARGE","FILE":"3927174","APOAPSIS":"560.061","MEAN_MOTION_DOT":"-0.00002498","DECAY_DATE":null,"MEAN_ELEMENT_THEORY":"SGP4","OBJECT_ID":"2023-015AG","ECCENTRICITY":"0.00014550","GP_ID":"233401858","EPOCH":"2023-06-07T01:20:33.679968","BSTAR":"-0.00016989000000","PERIAPSIS":"558.042","MEAN_ANOMALY":"86.8671","INCLINATION":"43.0032","REV_AT_EPOCH":"1947","CENTER_NAME":"EARTH","RA_OF_ASC_NODE":"23.3034","ELEMENT_SET_NO":"999","PERIOD":"95.837","TIME_SYSTEM":"UTC","SITE":"AFETR","OBJECT_TYPE":"PAYLOAD","EPHEMERIS_TYPE":"0","REF_FRAME":"TEME","OBJECT_NAME":"STARLINK-5688","NORAD_CAT_ID":"55479","TLE_LINE2":"2 55479  43.0032  23.3034 0001455 273.2005  86.8671 15.02545671 19476","SEMIMAJOR_AXIS":"6937.187","CLASSIFICATION_TYPE":"U","MEAN_MOTION_DDOT":"0.0000000000000","ARG_OF_PERICENTER":"273.2005","LAUNCH_DATE":"2023-02-02","COUNTRY_CODE":"US","TLE_LINE1":"1 55479U 23015AG  23158.05594537 -.00002498  00000-0 -16989-3 0  9999"},{"NORAD_CAT_ID":"55480","OBJECT_NAME":"STARLINK-5690","ARG_OF_PERICENTER":"277.6783","LAUNCH_DATE":"2023-02-02","CLASSIFICATION_TYPE":"U","TLE_LINE2":"2 55480  43.0046  42.2585 0001058 277.6783  82.3939 15.01716507 19312","SEMIMAJOR_AXIS":"6939.740","MEAN_MOTION_DDOT":"0.0000000000000","COUNTRY_CODE":"US","TLE_LINE1":"1 55480U 23015AH  23158.72502777 -.00000254  00000-0 -39577-5 0  9998","TIME_SYSTEM":"UTC","SITE":"AFETR","OBJECT_TYPE":"PAYLOAD","EPHEMERIS_TYPE":"0","REF_FRAME":"TEME","CENTER_NAME":"EARTH","PERIOD":"95.890","ELEMENT_SET_NO":"999","RA_OF_ASC_NODE":"42.2585","BSTAR":"-0.00000395770000","REV_AT_EPOCH":"1931","PERIAPSIS":"560.871","INCLINATION":"43.0046","MEAN_ANOMALY":"82.3939","ECCENTRICITY":"0.00010580","GP_ID":"233434821","EPOCH":"2023-06-07T17:24:02.399328","DECAY_DATE":null,"MEAN_ELEMENT_THEORY":"SGP4","OBJECT_ID":"2023-015AH","MEAN_MOTION":"15.01716507","FILE":"3927436","RCS_SIZE":"LARGE","MEAN_MOTION_DOT":"-0.00000254","APOAPSIS":"562.339"},{"BSTAR":"-0.00000147270000","REV_AT_EPOCH":"1928","PERIAPSIS":"558.074","INCLINATION":"43.0044","MEAN_ANOMALY":"87.9610","ECCENTRICITY":"0.00014480","GP_ID":"233435573","EPOCH":"2023-06-07T18:11:16.551744","DECAY_DATE":null,"MEAN_ELEMENT_THEORY":"SGP4","OBJECT_ID":"2023-015AJ","MEAN_MOTION":"15.02536830","RCS_SIZE":"LARGE","FILE":"3927436","MEAN_MOTION_DOT":"-0.00000224","APOAPSIS":"560.083","NORAD_CAT_ID":"55481","OBJECT_NAME":"STARLINK-5694","ARG_OF_PERICENTER":"272.1067","LAUNCH_DATE":"2023-02-02","SEMIMAJOR_AXIS":"6937.214","TLE_LINE2":"2 55481  43.0044  45.1127 0001448 272.1067  87.9610 15.02536830 19286","MEAN_MOTION_DDOT":"0.0000000000000","CLASSIFICATION_TYPE":"U","COUNTRY_CODE":"US","TLE_LINE1":"1 55481U 23015AJ  23158.75783046 -.00000224  00000-0 -14727-5 0  9999","TIME_SYSTEM":"UTC","SITE":"AFETR","EPHEMERIS_TYPE":"0","OBJECT_TYPE":"PAYLOAD","REF_FRAME":"TEME","CENTER_NAME":"EARTH","PERIOD":"95.838","ELEMENT_SET_NO":"999","RA_OF_ASC_NODE":"45.1127"},{"NORAD_CAT_ID":"55482","OBJECT_NAME":"STARLINK-5693","TLE_LINE2":"2 55482  43.0045  44.9321 0001229 259.2121 100.8583 15.02532171 19283","CLASSIFICATION_TYPE":"U","SEMIMAJOR_AXIS":"6937.228","MEAN_MOTION_DDOT":"0.0000000000000","ARG_OF_PERICENTER":"259.2121","LAUNCH_DATE":"2023-02-02","COUNTRY_CODE":"US","TLE_LINE1":"1 55482U 23015AK  23158.73452310  .00000028  00000-0  17181-4 0  9991","SITE":"AFETR","TIME_SYSTEM":"UTC","EPHEMERIS_TYPE":"0","OBJECT_TYPE":"PAYLOAD","REF_FRAME":"TEME","CENTER_NAME":"EARTH","RA_OF_ASC_NODE":"44.9321","ELEMENT_SET_NO":"999","PERIOD":"95.838","BSTAR":"0.00001718100000","PERIAPSIS":"558.241","INCLINATION":"43.0045","MEAN_ANOMALY":"100.8583","REV_AT_EPOCH":"1928","ECCENTRICITY":"0.00012290","GP_ID":"233435324","EPOCH":"2023-06-07T17:37:42.795840","DECAY_DATE":null,"MEAN_ELEMENT_THEORY":"SGP4","OBJECT_ID":"2023-015AK","MEAN_MOTION":"15.02532171","RCS_SIZE":"LARGE","FILE":"3927436","APOAPSIS":"559.946","MEAN_MOTION_DOT":"0.00000028"},{"GP_ID":"233434572","ECCENTRICITY":"0.00015070","EPOCH":"2023-06-07T17:55:17.818464","BSTAR":"0.00004362800000","PERIAPSIS":"558.045","INCLINATION":"43.0047","MEAN_ANOMALY":"94.1211","REV_AT_EPOCH":"1928","FILE":"3927436","RCS_SIZE":"LARGE","MEAN_MOTION":"15.02533195","APOAPSIS":"560.136","MEAN_MOTION_DOT":"0.00000386","DECAY_DATE":null,"OBJECT_ID":"2023-015AL","MEAN_ELEMENT_THEORY":"SGP4","OBJECT_TYPE":"PAYLOAD","EPHEMERIS_TYPE":"0","SITE":"AFETR","TIME_SYSTEM":"UTC","REF_FRAME":"TEME","SEMIMAJOR_AXIS":"6937.225","TLE_LINE2":"2 55483  43.0047  45.0275 0001507 265.9459  94.1211 15.02533195 19283","CLASSIFICATION_TYPE":"U","MEAN_MOTION_DDOT":"0.0000000000000","ARG_OF_PERICENTER":"265.9459","LAUNCH_DATE":"2023-02-02","NORAD_CAT_ID":"55483","OBJECT_NAME":"STARLINK-5692","TLE_LINE1":"1 55483U 23015AL  23158.74673401  .00000386  00000-0  43628-4 0  9991","COUNTRY_CODE":"US","CENTER_NAME":"EARTH","RA_OF_ASC_NODE":"45.0275","ELEMENT_SET_NO":"999","PERIOD":"95.838"},{"OBJECT_NAME":"STARLINK-5696","NORAD_CAT_ID":"55484","ARG_OF_PERICENTER":"266.2649","LAUNCH_DATE":"2023-02-02","TLE_LINE2":"2 55484  43.0050  44.9576 0001294 266.2649  93.8045 15.02532489 19284","SEMIMAJOR_AXIS":"6937.227","MEAN_MOTION_DDOT":"0.0000000000000","CLASSIFICATION_TYPE":"U","COUNTRY_CODE":"US","TLE_LINE1":"1 55484U 23015AM  23158.73785494 -.00000866  00000-0 -49079-4 0  9998","SITE":"AFETR","TIME_SYSTEM":"UTC","OBJECT_TYPE":"PAYLOAD","EPHEMERIS_TYPE":"0","REF_FRAME":"TEME","CENTER_NAME":"EARTH","ELEMENT_SET_NO":"999","PERIOD":"95.838","RA_OF_ASC_NODE":"44.9576","BSTAR":"-0.00004907900000","REV_AT_EPOCH":"1928","MEAN_ANOMALY":"93.8045","PERIAPSIS":"558.195","INCLINATION":"43.0050","ECCENTRICITY":"0.00012940","GP_ID":"233434322","EPOCH":"2023-06-07T17:42:30.666816","DECAY_DATE":null,"MEAN_ELEMENT_THEORY":"SGP4","OBJECT_ID":"2023-015AM","MEAN_MOTION":"15.02532489","FILE":"3927436","RCS_SIZE":"LARGE","MEAN_MOTION_DOT":"-0.00000866","APOAPSIS":"559.990"}];
